0 COSMOS 374 DEB *
1 05189U 70089BA  13281.81794355  .00003997  00000-0  52411-3 0  6276
2 05189 062.5961 266.3741 0351444 175.2699 250.5626 14.46983308614095
0 COSMOS 374 DEB *
1 05189U 70089BA  13283.13410350  .00005308  00000-0  68774-3 0  6281
2 05189 062.5962 262.2466 0351297 175.5287 266.6666 14.47003792614281
0 COSMOS 374 DEB *
1 05189U 70089BA  13285.28311656  .00004585  00000-0  59817-3 0  6293
2 05189 062.5958 255.5054 0350948 175.9492 301.4030 14.47018717614598
0 COSMOS 374 DEB *
1 05189U 70089BA  13287.49201539  .00005167  00000-0  67184-3 0  6301
2 05189 062.5960 248.5754 0350535 176.3763 288.2465 14.47037301614918
0 COSMOS 374 DEB *
1 05189U 70089BA  13289.35371535  .00006825  00000-0  88000-3 0  6315
2 05189 062.5964 242.7352 0350180 176.7409 266.5646 14.47063192615186
0 COSMOS 374 DEB *
1 05189U 70089BA  13291.42994336  .00006568  00000-0  84863-3 0  6324
2 05189 062.5971 236.2215 0349826 177.1506 282.6156 14.47083837615484
0 COSMOS 374 DEB *
1 05189U 70089BA  13293.43560421  .00006154  00000-0  79752-3 0  6334
2 05189 062.5971 229.9295 0349491 177.5368 291.2155 14.47106667615773
0 COSMOS 374 DEB *
1 05189U 70089BA  13295.63902953  .00007625  00000-0  98329-3 0  6344
2 05189 062.5968 223.0173 0349047 177.9670 250.2525 14.47130088616092
